IRIDIUM 166             
1 43570U 18061B   25003.61242898  .00001638  00000+0  57778-3 0  9999
2 43570  86.3968 278.0226 0001948  90.1430 269.9989 14.34214700337491
IRIDIUM 158             
1 43571U 18061C   25003.51094972  .00000839  00000+0  29239-3 0  9990
2 43571  86.3964 278.0750 0001782  82.2152 277.9246 14.34216032337449
IRIDIUM 165             
1 43572U 18061D   25003.25724747  .00001349  00000+0  47449-3 0  9992
2 43572  86.3971 278.2169 0002382  85.0201 275.1266 14.34221757337438
IRIDIUM 155             
1 43573U 18061E   25003.49826355  .00001064  00000+0  37275-3 0  9997
2 43573  86.3966 278.0117 0001852  88.9495 271.1912 14.34217648337430
IRIDIUM 154             
1 43574U 18061F   25003.26992113  .00000785  00000+0  27304-3 0  9990
2 43574  86.3967 278.2144 0002132  83.3094 276.8344 14.34225179337451
IRIDIUM 163             
1 43575U 18061G   25003.46021112  .00000401  00000+0  13611-3 0  9996
2 43575  86.3965 278.0671 0002050  81.7302 278.4126 14.34219743337452
IRIDIUM 156             
1 43576U 18061H   25003.29530113  .00000737  00000+0  25618-3 0  9996
2 43576  86.3967 278.1425 0001897  91.1427 268.9986 14.34210753337421
IRIDIUM 164             
1 43577U 18061J   25003.48557043  .00000754  00000+0  26216-3 0  9993
2 43577  86.3962 278.0952 0002403  85.8281 274.3189 14.34212515337494
